     3.03           NAVIGATION DATA     M (Mixed)           RINEX VERSION / TYPE
BCEmerge            congo               20190704 004602 GMT PGM / RUN BY / DATE 
Merged GPS/GLO/GAL/BDS/QZS/SBAS/IRNSS navigation file       COMMENT 
based on CONGO and MGEX tracking data                       COMMENT 
DLR: O. Montenbruck;  TUM: P. Steigenberger                 COMMENT 
GPSA   0.4657E-08  0.1490E-07 -0.5960E-07 -0.1192E-06       IONOSPHERIC CORR    
GPSB   0.8192E+05  0.8192E+05 -0.6554E+05 -0.5243E+06       IONOSPHERIC CORR    
GAUT  1.3038516045e-08-7.993605777e-15 172800 2060          TIME SYSTEM CORR    
GPGA  1.2398231775e-08 7.549516567e-15 259200 2060          TIME SYSTEM CORR    
QZUT  3.7252902985e-09 0.000000000e+00 442368 2060          TIME SYSTEM CORR    
                                                            END OF HEADER       
G07 2019 07 03 12 00 00-5.682744085789e-05-7.617018127348e-12 0.000000000000e+00
     4.900000000000e+01-1.634375000000e+01 4.695552731476e-09-2.304860791343e+00
    -1.145526766777e-06 1.297226524912e-02 9.931623935699e-06 5.153742074966e+03
     3.024000000000e+05 1.378357410431e-07-4.557809548434e-01-1.564621925354e-07
     9.553542014686e-01 1.836562500000e+02-2.453518398204e+00-7.822825852097e-09
    -4.775198906202e-10 1.000000000000e+00 2.060000000000e+03 0.000000000000e+00
     2.000000000000e+00 0.000000000000e+00-1.117587089539e-08 4.900000000000e+01
     2.952180000000e+05 4.000000000000e+00                                      
G07 2019 07 03 14 00 00-5.688285455108e-05-7.617018127348e-12 0.000000000000e+00
     5.100000000000e+01-4.656250000000e+00 4.707696094439e-09-1.254883364689e+00
    -2.067536115646e-07 1.297283719759e-02 9.162351489067e-06 5.153737916946e+03
     3.096000000000e+05 2.775341272354e-07-4.558370197158e-01-3.352761268616e-08
     9.553505119892e-01 1.941250000000e+02-2.453354318775e+00-7.906043604165e-09
    -5.360937590283e-10 1.000000000000e+00 2.060000000000e+03 0.000000000000e+00
     2.000000000000e+00 0.000000000000e+00-1.117587089539e-08 5.100000000000e+01
     3.024000000000e+05 4.000000000000e+00                                      
G08 2019 07 03 10 00 00-1.497692428529e-04-1.477928890381e-12 0.000000000000e+00
     2.800000000000e+01 4.096875000000e+01 4.535546066556e-09-4.217593510099e-01
     2.088025212288e-06 4.387160763144e-03-2.421438694000e-07 5.153761404037e+03
     2.952000000000e+05 7.450580596924e-08 1.610188773957e+00-2.980232238770e-08
     9.700258259035e-01 3.907500000000e+02-2.086672013579e-01-8.462495354042e-09
    -2.464388365953e-11 0.000000000000e+00 2.060000000000e+03 0.000000000000e+00
     4.000000000000e+00 0.000000000000e+00 5.122274160385e-09 2.800000000000e+01
     2.882390000000e+05 6.000000000000e+00                                      
G08 2019 07 03 12 00 00-1.497799530625e-04-1.477928890381e-12 0.000000000000e+00
     8.000000000000e+01 4.906250000000e+01 4.688409576792e-09 6.282608557579e-01
     2.427026629448e-06 4.386737826280e-03-5.494803190231e-07 5.153760692596e+03
     3.024000000000e+05-7.450580596924e-09 1.610127578631e+00 2.048909664154e-08
     9.700251749050e-01 3.898437500000e+02-2.085585987085e-01-8.554642049465e-09
    -3.821587755898e-11 1.000000000000e+00 2.060000000000e+03 0.000000000000e+00
     2.000000000000e+00 0.000000000000e+00 5.122274160385e-09 8.000000000000e+01
     2.952180000000e+05 4.000000000000e+00                                      
G08 2019 07 03 14 00 00-1.497906632721e-04-1.477928890381e-12 0.000000000000e+00
     9.000000000000e+01 5.459375000000e+01 4.786985111430e-09 1.678317285840e+00
     3.039836883545e-06 4.387326189317e-03-6.556510925293e-07 5.153761692047e+03
     3.096000000000e+05 7.823109626770e-08 1.610065460203e+00 1.862645149231e-08
     9.700249423010e-01 3.945000000000e+02-2.084863700542e-01-8.601072554910e-09
     2.321525272275e-11 1.000000000000e+00 2.060000000000e+03 0.000000000000e+00
     2.000000000000e+00 0.000000000000e+00 5.122274160385e-09 9.000000000000e+01
     3.024000000000e+05 4.000000000000e+00                                      
G10 2019 07 03 10 00 00-3.578141331673e-06-1.250555214938e-11 0.000000000000e+00
     4.100000000000e+01-4.412500000000e+01 4.136600877459e-09 1.491882190973e+00
    -2.263113856316e-06 4.616748890840e-03 1.157820224762e-05 5.153668437958e+03
     2.952000000000e+05-3.166496753693e-08-2.567136185378e+00 8.754432201385e-08
     9.634023458033e-01 1.566562500000e+02-2.703131891013e+00-7.691391805913e-09
     6.196686688302e-10 0.000000000000e+00 2.060000000000e+03 0.000000000000e+00
     4.000000000000e+00 0.000000000000e+00 1.862645149231e-09 4.100000000000e+01
     2.885590000000e+05 6.000000000000e+00                                      
G10 2019 07 03 12 00 00-3.668479621410e-06-1.250555214938e-11 0.000000000000e+00
     4.200000000000e+01-4.078125000000e+01 4.094813422558e-09 2.542151212311e+00
    -2.006068825722e-06 4.617673461325e-03 1.207925379276e-05 5.153666996002e+03
     3.024000000000e+05-7.264316082001e-08-2.567191656306e+00-1.117587089539e-08
     9.634072977810e-01 1.459375000000e+02-2.703219929423e+00-7.611031315719e-09
     6.714565402886e-10 1.000000000000e+00 2.060000000000e+03 0.000000000000e+00
     2.000000000000e+00 0.000000000000e+00 1.862645149231e-09 4.200000000000e+01
     2.952180000000e+05                                                         
G10 2019 07 03 14 00 00-3.758817911148e-06-1.250555214938e-11 0.000000000000e+00
     4.300000000000e+01-3.284375000000e+01 4.018738825174e-09-2.690741429850e+00
    -1.732259988785e-06 4.617264959961e-03 1.233071088791e-05 5.153667673111e+03
     3.096000000000e+05-4.656612873077e-08-2.567246150004e+00 2.793967723846e-08
     9.634123038866e-01 1.426562500000e+02-2.703330473365e+00-7.561029232931e-09
     6.571702309208e-10 1.000000000000e+00 2.060000000000e+03 0.000000000000e+00
     2.000000000000e+00 0.000000000000e+00 1.862645149231e-09 4.300000000000e+01
     3.024000000000e+05 4.000000000000e+00                                      
G15 2019 07 03 09 59 44-3.032730892301e-04 2.387423592154e-12 0.000000000000e+00
     4.000000000000e+00 1.346875000000e+01 5.751310993760e-09-1.444037175773e+00
     7.618218660355e-07 1.141075720079e-02 4.466623067856e-06 5.153700561523e+03
     2.951840000000e+05 2.682209014893e-07-1.612749696904e+00-6.146728992462e-08
     9.274950069185e-01 2.675000000000e+02 7.829158532793e-01-8.476424505676e-09
     4.157316026042e-10 0.000000000000e+00 2.060000000000e+03 0.000000000000e+00
     4.000000000000e+00 0.000000000000e+00-1.117587089539e-08 4.000000000000e+00
     2.882390000000e+05 6.000000000000e+00                                      
G15 2019 07 03 12 00 00-3.032558597624e-04 2.387423592154e-12 0.000000000000e+00
     9.000000000000e+00 1.403125000000e+01 5.817385174586e-09-3.915184204966e-01
     9.778887033463e-07 1.141093939077e-02 4.803761839867e-06 5.153700967789e+03
     3.024000000000e+05 3.352761268616e-08-1.612811674891e+00 1.583248376846e-07
     9.274963996165e-01 2.693125000000e+02 7.829041367684e-01-8.792151942705e-09
     3.568005764619e-10 1.000000000000e+00 2.060000000000e+03 0.000000000000e+00
     2.000000000000e+00 0.000000000000e+00-1.117587089539e-08 9.000000000000e+00
     2.952180000000e+05 4.000000000000e+00                                      
G15 2019 07 03 14 00 00-3.032386302948e-04 2.387423592154e-12 0.000000000000e+00
     1.000000000000e+01 2.443750000000e+01 5.702380384175e-09 6.586267370301e-01
     1.385807991028e-06 1.141252636444e-02 5.053356289864e-06 5.153704084396e+03
     3.096000000000e+05-1.266598701477e-07-1.612874259990e+00 1.341104507446e-07
     9.274988865772e-01 2.650312500000e+02 7.829309740005e-01-8.727506392816e-09
     2.571535686212e-10 1.000000000000e+00 2.060000000000e+03 0.000000000000e+00
     2.000000000000e+00 0.000000000000e+00-1.117587089539e-08 1.000000000000e+01
     3.024180000000e+05 4.000000000000e+00                                      
G16 2019 07 03 10 00 00-5.308538675308e-05-3.183231456205e-12 0.000000000000e+00
     6.200000000000e+01 1.393437500000e+02 3.966950953716e-09 3.425763279191e-01
     7.513910531998e-06 1.073968911078e-02 8.689239621162e-06 5.153602813721e+03
     2.952000000000e+05 2.235174179077e-08 6.633438520083e-01 1.266598701477e-07
     9.829564768828e-01 2.202812500000e+02 5.832518506207e-01-7.900686238152e-09
     8.214627886510e-12 1.000000000000e+00 2.060000000000e+03 0.000000000000e+00
     2.000000000000e+00 0.000000000000e+00-1.071020960808e-08 6.200000000000e+01
     2.880180000000e+05 4.000000000000e+00                                      
G16 2019 07 03 12 00 00-5.310820415616e-05-3.183231456205e-12 0.000000000000e+00
     6.300000000000e+01 1.530625000000e+02 3.905162665700e-09 1.392606347941e+00
     8.203089237213e-06 1.074216782581e-02 9.888783097267e-06 5.153608789444e+03
     3.024000000000e+05-6.705522537231e-08 6.632869166996e-01 1.825392246246e-07
     9.829565368624e-01 2.004375000000e+02 5.834392899254e-01-7.876042354492e-09
     3.893019302737e-11 1.000000000000e+00 2.060000000000e+03 0.000000000000e+00
     2.000000000000e+00 0.000000000000e+00-1.071020960808e-08 6.300000000000e+01
     2.952000000000e+05 4.000000000000e+00                                      
G16 2019 07 03 14 00 00-5.313055589795e-05-3.183231456205e-12 0.000000000000e+00
     9.000000000000e+01 1.680937500000e+02 3.884804674851e-09 2.442997157209e+00
     8.588656783104e-06 1.074222160969e-02 9.622424840927e-06 5.153605493546e+03
     3.096000000000e+05-1.564621925354e-07 6.632299857796e-01-1.676380634308e-07
     9.829586273723e-01 2.050000000000e+02 5.832671308000e-01-7.582815854717e-09
     2.121516941125e-10 1.000000000000e+00 2.060000000000e+03 0.000000000000e+00
     2.000000000000e+00 0.000000000000e+00-1.071020960808e-08 9.000000000000e+01
     3.024000000000e+05 4.000000000000e+00                                      
